{
    "links": {
        "self": "http://www.neowsapp.com/rest/v1/neo/3306401?api_key=iIulBulltgU6a56xZRHN4H3l9WmuAYTsLGpBGhQ2"
    },
    "id": "3306401",
    "neo_reference_id": "3306401",
    "name": "(2005 XK4)",
    "designation": "2005 XK4",
    "nasa_jpl_url": "http://ssd.jpl.nasa.gov/sbdb.cgi?sstr=3306401",
    "absolute_magnitude_h": 24.5,
    "estimated_diameter": {
        "kilometers": {
            "estimated_diameter_min": 0.0334622374,
            "estimated_diameter_max": 0.0748238376
        },
        "meters": {
            "estimated_diameter_min": 33.4622374455,
            "estimated_diameter_max": 74.8238376074
        },
        "miles": {
            "estimated_diameter_min": 0.0207924639,
            "estimated_diameter_max": 0.0464933628
        },
        "feet": {
            "estimated_diameter_min": 109.7842471007,
            "estimated_diameter_max": 245.4850393757
        }
    },
    "is_potentially_hazardous_asteroid": false,
    "close_approach_data": [
        {
            "close_approach_date": "2005-11-24",
            "close_approach_date_full": "2005-Nov-24 14:09",
            "epoch_date_close_approach": 1132841340000,
            "relative_velocity": {
                "kilometers_per_second": "19.3270027807",
                "kilometers_per_hour": "69577.2100105513",
                "miles_per_hour": "43232.5725201673"
            },
            "miss_distance": {
                "astronomical": "0.0278870817",
                "lunar": "10.8480747813",
                "kilometers": "4171848.022835979",
                "miles": "2592266.1564113502"
            },
            "orbiting_body": "Earth"
        }
    ],
    "orbital_data": {
        "orbit_id": "6",
        "orbit_determination_date": "2017-04-06 09:09:41",
        "first_observation_date": "2005-12-04",
        "last_observation_date": "2005-12-06",
        "data_arc_in_days": 2,
        "observations_used": 36,
        "orbit_uncertainty": "9",
        "minimum_orbit_intersection": ".0197569",
        "jupiter_tisserand_invariant": "4.648",
        "epoch_osculation": "2453709.5",
        "eccentricity": ".6052687889199531",
        "semi_major_axis": "1.353105796133751",
        "inclination": "8.626456096554199",
        "ascending_node_longitude": "250.6298133881591",
        "orbital_period": "574.9049638361264",
        "perihelion_distance": ".5341130896273067",
        "perihelion_argument": "69.63074428345672",
        "aphelion_distance": "2.172098502640196",
        "perihelion_time": "2453646.685763097090",
        "mean_anomaly": "39.3336754898734",
        "mean_motion": ".6261904534583494",
        "equinox": "J2000",
        "orbit_class": {
            "orbit_class_type": "APO",
            "orbit_class_description": "Near-Earth asteroid orbits which cross the Earth’s orbit similar to that of 1862 Apollo",
            "orbit_class_range": "a (semi-major axis) > 1.0 AU; q (perihelion) < 1.017 AU"
        }
    },
    "is_sentry_object": false
}